[{"OBJECT_NAME":"STARLINK-31686","OBJECT_ID":"2024-076R","EPOCH":"2026-03-09T05:09:20.728800","MEAN_MOTION":15.27598261,"ECCENTRICITY":0.00012071,"INCLINATION":43.0054,"RA_OF_ASC_NODE":11.3685,"ARG_OF_PERICENTER":273.6352,"MEAN_ANOMALY":86.4362,"EPHEMERIS_TYPE":0,"CLASSIFICATION_TYPE":"U","NORAD_CAT_ID":59579,"ELEMENT_SET_NO":999,"REV_AT_EPOCH":10643,"BSTAR":7.4477221e-5,"MEAN_MOTION_DOT":1.789e-5,"MEAN_MOTION_DDOT":0},{"OBJECT_NAME":"OBJECT BD","OBJECT_ID":"2025-313BD","EPOCH":"2026-03-09T15:06:44.992224","MEAN_MOTION":15.3000236,"ECCENTRICITY":0.00072867,"INCLINATION":97.397,"RA_OF_ASC_NODE":145.285,"ARG_OF_PERICENTER":333.4514,"MEAN_ANOMALY":26.6352,"EPHEMERIS_TYPE":0,"CLASSIFICATION_TYPE":"U","NORAD_CAT_ID":67299,"ELEMENT_SET_NO":999,"REV_AT_EPOCH":1083,"BSTAR":0.0027633805,"MEAN_MOTION_DOT":0.0008101,"MEAN_MOTION_DDOT":0}]
